# From MPC114610
369P/Hill,e,10.3193,47.2837,13.2423,4.378582,0.1075732,0.55589666,261.6832,06/18.0/2025,2000,g 15.0,4.0
# From MPEC 2021-F20
370P/NEAT,e,19.4167,55.0865,356.7870,6.440307,0.0603037,0.61513529,154.5142,06/18.0/2025,2000,g 13.0,4.0
# From MPC114610
371P/LINEAR-Skiff,e,17.3836,67.2837,308.5663,4.180558,0.1153062,0.47656628,281.9397,06/18.0/2025,2000,g 16.0,4.0
# From MPEC 2020-K19
372P/McNaught,e,9.5037,27.5493,325.9523,4.512971,0.1028041,0.15120423,249.8791,06/18.0/2025,2000,g 13.5,4.0
# From MPEC 2021-F20
373P/Rinner,e,13.7707,231.9301,221.1417,3.796881,0.1332182,0.39381822,300.8572,06/18.0/2025,2000,g 14.5,4.0
# From MPC114610
374P/Larson,e,10.7603,7.8641,51.5899,4.971325,0.0889193,0.46361096,208.6314,06/18.0/2025,2000,g 14.0,4.0
# From MPEC 2021-F20
375P/Hill,e,17.3750,359.8292,119.4566,5.545452,0.0754742,0.66026182,178.7364,06/18.0/2025,2000,g 16.0,4.0
# From MPEC 2024-RQ6
376P/LONEOS,e,1.1662,312.8504,285.3422,5.755134,0.0713873,0.51375270,150.2708,06/18.0/2025,2000,g 12.5,4.0
# From MPEC 2022-N37
377P/Scotti,e,9.0326,225.9260,354.8970,6.694723,0.0568991,0.25146707,102.6727,06/18.0/2025,2000,g  9.5,4.0
# From MPEC 2025-A40
378P/McNaught,e,19.1600,93.7910,193.3009,6.286862,0.0625249,0.46335260,107.2781,06/18.0/2025,2000,g 12.0,4.0
# From MPC115889
379P/Spacewatch,e,12.4366,30.4467,184.7009,3.483129,0.1516177,0.35018490,322.1226,06/18.0/2025,2000,g 15.0,4.0
# From MPEC 2023-C45
380P/PANSTARRS,e,8.0345,127.7012,87.6752,4.444305,0.1051958,0.33378677,239.3083,06/18.0/2025,2000,g 12.5,4.0
# From MPEC 2021-J28
381P/LINEAR-Spacewatch,e,28.3359,173.3221,173.8471,7.145099,0.0516050,0.68051518,108.0078,06/18.0/2025,2000,g 17.5,2.0
# From MPC182891
382P/Larson,e,8.2743,170.0709,162.4391,5.888650,0.0689732,0.26509011,91.5945,06/18.0/2025,2000,g  8.0,4.0
# From MPEC 2022-OB6
383P/Christensen,e,12.3166,207.8549,133.7216,3.549096,0.1474102,0.59847039,304.0450,06/18.0/2025,2000,g 18.0,4.0
# From MPC182891
384P/Kowalski,e,7.2841,354.1876,37.7008,2.897373,0.1998469,0.61625082,54.3347,06/18.0/2025,2000,g 19.5,4.0
# From MPEC 2021-F20
385P/Hill,e,16.8221,357.0326,44.4658,4.289142,0.1109554,0.40183760,233.0796,06/18.0/2025,2000,g 13.0,4.0
# From MPEC 2021-L04
386P/PANSTARRS,e,15.2471,134.9159,353.1060,4.048988,0.1209718,0.41752281,213.1715,06/18.0/2025,2000,g 14.5,4.0
# From MPEC 2021-J28
387P/Boattini,e,8.9379,259.2389,162.8535,4.797483,0.0937959,0.73697179,197.8138,06/18.0/2025,2000,g 15.0,4.0
# From MPEC 2021-S45
388P/Gibbs,e,23.8773,37.0074,42.3733,5.240811,0.0821498,0.61935551,176.8823,06/18.0/2025,2000,g 13.0,4.0
# From MPEC 2022-OB6
389P/Siding Spring,e,160.0790,218.8486,249.3192,5.629939,0.0737817,0.70573800,147.2410,06/18.0/2025,2000,g 16.0,4.0
# From MPEC 2024-EF7
390P/Gibbs,e,18.5214,152.1990,232.5612,5.817935,0.0702346,0.70663711,134.4060,06/18.0/2025,2000,g 12.0,4.0
# From MPEC 2021-F20
391P/Kowalski,e,21.2568,124.7733,186.9169,4.691700,0.0969859,0.11836378,257.3762,06/18.0/2025,2000,g  8.0,4.0
# From MPEC 2021-J28
392P/LINEAR,e,4.9283,24.7992,71.9705,6.142513,0.0647418,0.68393934,123.1385,06/18.0/2025,2000,g 14.5,4.0
# From MPC182892
393P/Spacewatch-Hill,e,16.7832,36.4021,329.2005,4.800634,0.0937036,0.11906360,192.8200,06/18.0/2025,2000,g 11.0,4.0
# From MPEC 2020-KB7
394P/PANSTARRS,e,8.5280,98.1014,54.4554,4.326383,0.1095259,0.36838785,221.8767,06/18.0/2025,2000,g 16.0,2.4
# From MPC182892
395P/Catalina-NEAT,e,3.5693,220.9631,100.7123,7.203301,0.0509808,0.41130926,61.8676,06/18.0/2025,2000,g 10.0,4.0
# From MPEC 2020-KB7
396P/,e,5.4427,136.6067,8.3093,6.798689,0.0555989,0.41702669,117.8550,06/18.0/2025,2000,g 12.0,4.0
# From MPEC 2022-OB6
397P/Lemmon,e,10.9196,8.2077,14.5883,3.832273,0.1313770,0.40456635,239.6338,06/18.0/2025,2000,g 12.0,4.0
# From MPEC 2021-L04
398P/Boattini,e,11.0277,320.1346,127.5523,3.124377,0.1784674,0.58376696,291.3034,06/18.0/2025,2000,g 15.5,4.0
# From MPEC 2023-XP6
399P/PANSTARRS,e,13.3160,207.1156,214.4517,3.793649,0.1333885,0.44727314,198.2608,06/18.0/2025,2000,g 14.0,4.0
# From MPEC 2024-TD8
400P/PANSTARRS,e,10.9251,176.3461,238.9550,3.561985,0.1466108,0.40958471,232.7372,06/18.0/2025,2000,g 15.5,2.8
# From MPEC 2022-K19
401P/McNaught,e,12.8004,359.9226,309.3484,5.776578,0.0709902,0.57834237,143.6757,06/18.0/2025,2000,g 12.5,4.0
# From MPEC 2024-LE0
402P/LINEAR,e,30.8289,123.0437,326.9984,7.041179,0.0527516,0.44001345,67.5193,06/18.0/2025,2000,g  9.0,4.0
# From MPEC 2021-J28
403P/Catalina,e,12.3322,277.5607,163.9728,5.432779,0.0778343,0.50422037,134.9725,06/18.0/2025,2000,g 12.0,4.0
# From MPC184420
404P/Bressi,e,9.8042,260.0411,168.9713,4.718241,0.0961687,0.12415891,57.2596,06/18.0/2025,2000,g 10.0,4.0
# From MPEC 2021-L04
405P/Lemmon,e,9.3792,112.1935,3.3100,3.603784,0.1440675,0.69020477,235.5867,06/18.0/2025,2000,g 17.5,4.0
# From MPEC 2021-F20
406P/Gibbs,e,1.2098,352.3865,11.5604,3.579506,0.1455357,0.54101799,252.7565,06/18.0/2025,2000,g 17.0,4.0
# From MPEC 2022-YN2
407P/PANSTARRS-Fuls,e,4.8755,80.2443,93.1067,3.493570,0.1509384,0.37577936,299.2317,06/18.0/2025,2000,g 14.0,4.0
# From MPC184420
408P/Novichonok-Gerke,e,19.3515,189.4513,226.6949,4.745843,0.0953310,0.26839848,93.9914,06/18.0/2025,2000,g 11.0,4.0
# From MPEC 2022-ED3
409P/LONEOS-Hill,e,17.1490,143.6401,15.0411,6.032753,0.0665167,0.71024731,106.5140,06/18.0/2025,2000,g 14.0,4.0
# From MPEC 2022-M21
410P/NEAT-LINEAR,e,9.3881,139.9313,313.2786,6.653945,0.0574229,0.51171838,83.5062,06/18.0/2025,2000,g 12.5,4.0
# From MPC184420
411P/Christensen,e,12.3887,77.6512,46.5719,5.811717,0.0703473,0.58181341,112.8553,06/18.0/2025,2000,g 13.5,4.0
# From MPEC 2021-F20
412P/WISE,e,8.9294,0.8418,155.8574,3.111606,0.1795672,0.47905728,297.7557,06/18.0/2025,2000,g 17.0,4.0
# From MPC184420
413P/Larson,e,15.9594,38.9480,186.7338,3.735781,0.1364998,0.41776369,195.7493,06/18.0/2025,2000,g 14.0,4.0
# From MPEC 2024-JU4
414P/STEREO,e,23.4073,257.8153,210.7108,2.792083,0.2112573,0.81226882,338.8048,06/18.0/2025,2000,g 19.0,4.0
# From MPEC 2022-J42
415P/Tenagra,e,31.8100,160.2578,345.8850,4.108133,0.1183688,0.19554101,187.5737,06/18.0/2025,2000,g 12.0,4.0
# From MPC184420
416P/Scotti,e,3.3635,355.7310,134.4547,4.006406,0.1229056,0.45548738,194.4640,06/18.0/2025,2000,g 15.5,4.0
# From MPEC 2021-W31
417P/NEOWISE,e,9.9102,112.0024,126.4727,3.348132,0.1608793,0.55422383,248.3343,06/18.0/2025,2000,g 16.5,4.0
# From MPEC 2022-TA0
418P/LINEAR,e,5.7809,277.6176,307.3340,5.089965,0.0858286,0.66388083,115.0652,06/18.0/2025,2000,g 13.0,4.0
# From MPEC 2023-UR6
419P/PANSTARRS,e,2.7949,40.4089,187.8456,3.534242,0.1483405,0.27357224,197.8020,06/18.0/2025,2000,g 12.5,4.0
# From MPEC 2024-L77
420P/Hill,e,14.5013,173.5273,156.4055,5.480794,0.0768137,0.49510804,86.5609,06/18.0/2025,2000,g 11.5,4.0
# From MPEC 2021-W31
421P/McNaught,e,10.0757,55.3310,259.8575,5.074771,0.0862143,0.67438364,138.4972,06/18.0/2025,2000,g 14.0,4.0
# From MPEC 2024-N80
422P/Christensen,e,39.5803,36.0126,304.7585,6.274083,0.0627161,0.50568673,78.6634,06/18.0/2025,2000,g 11.0,4.0
# From MPEC 2023-FK0
423P/Lemmon,e,8.3425,33.3020,80.9286,6.182286,0.0641181,0.12278934,87.2227,06/18.0/2025,2000,g  8.0,4.0
# From MPEC 2022-CN4
424P/LaSagra,e,8.6815,51.2122,312.5562,4.421042,0.1060272,0.69036054,140.6062,06/18.0/2025,2000,g 17.0,4.0
# From MPEC 2024-C04
425P/Kowalski,e,16.4136,210.0869,200.9923,6.351775,0.0615689,0.54370716,84.1056,06/18.0/2025,2000,g 12.0,4.0
# From MPEC 2024-N80
426P/PANSTARRS,e,17.7841,280.3969,118.3906,3.185838,0.1733279,0.16103476,112.0872,06/18.0/2025,2000,g 13.5,4.0
# From MPEC 2023-J29
428P/Gibbs,e,8.5029,299.3109,36.8951,3.488539,0.1512651,0.51819865,226.4369,06/18.0/2025,2000,g 15.0,4.0
# From MPEC 2024-EF7
429P/LINEAR-Hill,e,7.5142,322.0136,75.7363,3.555872,0.1469890,0.49084152,185.6243,06/18.0/2025,2000,g 15.5,4.0
# From MPEC 2022-L66
430P/Scotti,e,4.4756,54.6464,94.4529,3.103210,0.1802965,0.50028310,233.1642,06/18.0/2025,2000,g 16.5,4.0
# From MPEC 2025-A40
431P/Scotti,e,22.3801,202.8381,200.0024,3.477036,0.1520164,0.47734204,185.5351,06/18.0/2025,2000,g 14.0,4.0
# From MPEC 2021-U31
432P/PANSTARRS,e,10.0678,239.1306,105.2701,3.038362,0.1860993,0.24083556,258.4970,06/18.0/2025,2000,g 17.0,4.0
# From MPEC 2024-D33
434P/Tenagra,e,6.3363,288.9132,128.4463,4.135983,0.1171753,0.27430968,155.8312,06/18.0/2025,2000,g 13.0,4.0
# From MPEC 2021-W31
435P/PANSTARRS,e,18.8745,98.5244,244.2083,3.021666,0.1876438,0.31755658,266.9946,06/18.0/2025,2000,g 17.0,4.0
# From MPEC 2022-X67
436P/Garradd,e,20.1993,87.1566,282.7623,5.936794,0.0681359,0.66905600,87.7736,06/18.0/2025,2000,g 14.5,4.0
# From MPEC 2023-B57
437P/Lemmon-PANSTARRS,e,3.6890,245.8407,207.0626,4.568984,0.1009194,0.25505359,104.2230,06/18.0/2025,2000,g 13.0,4.0
# From MPEC 2025-A40
438P/Christensen,e,8.2807,260.1088,58.9854,3.852649,0.1303362,0.41413914,248.0225,06/18.0/2025,2000,g 14.5,4.0
# From MPEC 2022-C56
439P/LINEAR,e,7.1120,56.4378,342.1059,3.491856,0.1510496,0.46909270,210.2062,06/18.0/2025,2000,g 13.5,4.0
# From MPEC 2024-N80
440P/Kobayashi,e,12.3508,328.8047,183.3010,8.579248,0.0392220,0.76086010,46.1100,06/18.0/2025,2000,g 15.5,4.0
# From MPEC 2022-X67
441P/PANSTARRS,e,2.5748,143.5912,178.8627,4.132195,0.1173364,0.19464672,350.2198,06/18.0/2025,2000,g 13.5,4.0
# From MPEC 2024-N80
442P/McNaught,e,6.0574,31.9493,310.6407,4.954748,0.0893659,0.53257006,92.5238,06/18.0/2025,2000,g 13.5,4.0
# From MPEC 2024-TD8
443P/PANSTARRS-Christensen,e,19.8879,108.9337,145.0744,4.124619,0.1176599,0.28294413,115.6087,06/18.0/2025,2000,g 13.5,4.0
# From MPEC 2023-VM5
444P/WISE-PANSTARRS,e,22.7292,88.1834,172.8629,3.472959,0.1522841,0.55765142,165.0092,06/18.0/2025,2000,g 17.0,4.0
# From MPEC 2024-BE0
445P/Lemmon-PANSTARRS,e,1.0889,126.5904,213.2084,4.046086,0.1211020,0.41416020,125.5570,06/18.0/2025,2000,g 15.0,4.0
# From MPEC 2024-NE4
446P/McNaught,e,16.6286,336.3374,344.6245,4.559967,0.1012189,0.64676552,112.9903,06/18.0/2025,2000,g 16.5,4.0
# From MPEC 2022-YB4
447P/Sheppard-Tholen,e,7.4412,302.6371,97.5155,5.625832,0.0738625,0.17727876,76.5709,06/18.0/2025,2000,g 12.0,4.0
# From MPEC 2024-PC5
